#aV2013  8 12  0  0  0.00000000     288 DD+AD WGS84 FIT  NGA
## 1753  86400.00000000   300.00000000 56516 0.0000000000000
+   31     1  2  3  4  5  6  7  8  9 10 11 12 13 14 15 16 17
+         18 19 20 21 22 23 24 25 26 27 28 29 31 32  0  0  0
+          0  0  0  0  0  0  0  0  0  0  0  0  0  0  0  0  0
+          0  0  0  0  0  0  0  0  0  0  0  0  0  0  0  0  0
+          0  0  0  0  0  0  0  0  0  0  0  0  0  0  0  0  0
++         2  2  2  2  2  2  2  2  2  2  2  2  2  2  2  2  2
++         2  2  2  2  2  2  2  2  2  2  2  2  2  2  2  0  0
++         0  0  0  0  0  0  0  0  0  0  0  0  0  0  0  0  0
++         0  0  0  0  0  0  0  0  0  0  0  0  0  0  0  0  0
++         0  0  0  0  0  0  0  0  0  0  0  0  0  0  0  0  0
%c cc cc ccc ccc cccc cccc cccc cccc ccccc ccccc ccccc ccccc
%c cc cc ccc ccc cccc cccc cccc cccc ccccc ccccc ccccc ccccc
%f  0.0000000  0.000000000  0.00000000000  0.000000000000000
%f  0.0000000  0.000000000  0.00000000000  0.000000000000000
%i    0    0    0    0      0      0      0      0         0
%i    0    0    0    0      0      0      0      0         0
/*      NGA, ST. LOUIS,MO.                                  
/*   EPHEMERIS COMPUTED FROM  1 DAYS OF DATA
/*   EPOCHA SMOOTHER  
/* CCCCCCCCCCCCCCCCCCCCCCCCCCCCCCCCCCCCCCCCCCCCCCCCCCCCCCCCC
*  2013  8 12 11 50  0.00000000                                                 
P  1 -20765.238242 -13752.326044  -9393.846216     62.096507                    
V  1  12041.460489   1369.827936 -28591.110559      0.046575                    
P  2  -1708.361648  15895.231326  21469.786071    446.184231                    
V  2 -25667.295385  -7655.137841   3157.031092      0.017974                    
P  3   3547.531341 -21759.970469 -15199.235745    245.014750                    
V  3  13829.077045 -12591.986313  22232.736333      0.050222                    
P  4 -15344.913345   9799.049951  19135.506792    297.875006                    
V  4 -23265.503134  -9028.094440 -13555.651860      0.102903                    
P  5    955.602023  25727.605288   6179.793246   -399.451517                    
V  5  -4801.201500  -7079.628527  30238.994006     -0.002249                    
P  6  10673.013772 -21725.019366 -10419.504870     97.051872                    
V  6  11796.524982  -7332.310972  27574.637221     -0.188396                    
P  7 -25678.441618  -5292.043463  -5161.480382    246.510571                    
V  7  -5508.575370  -4086.560236  30978.241599      0.041957                    
P  8 -22069.295788    581.701650 -15090.008477      7.901728                    
V  8 -16980.637766  -8705.214870  23718.086782      0.001831                    
P  9 -21773.572594   3668.903835 -15372.245034    260.771837                    
V  9 -17167.983519  -6934.423431  23402.179375      0.021808                    
P 10 -10778.040497  15116.776927  18537.329543    -90.342198                    
V 10  -6564.002353 -23547.873578  15558.413482     -0.014816                    
P 11 -15597.876345 -13971.527355 -16932.684538   -409.560016                    
V 11  20871.590820  -2338.880438 -17515.724680     -0.036101                    
P 12  10443.377775  22559.037541   9599.214758    150.085197                    
V 12    427.759438  12271.276280 -28961.672845      0.021714                    
P 13 -20317.715525    674.310357  17037.682960     90.785027                    
V 13  16828.472911 -13905.674865  20321.884442     -0.037306                    
P 14  21246.754632 -15765.831217   -798.717182    218.037434                    
V 14    562.715334   2801.127739 -32110.701321     -0.006140                    
P 15   8076.244836  13746.517816 -21247.326215   -131.872914                    
V 15 -19974.567981  18205.775537   4453.770534     -0.017547                    
P 16    281.758643 -25583.181913   6408.864805   -248.771788                    
V 16   3479.750041   7787.787205  31113.178542      0.006443                    
P 17 -21406.840588  15214.984948  -2754.935037    -10.456051                    
V 17   1106.349197  -4612.179347 -31772.980649     -0.038359                    
P 18  16195.215755   1794.114985 -20597.863791    268.373446                    
V 18   5035.930067  26748.954900   5819.682890      0.019545                    
P 19  -2244.394353 -16358.041439 -20820.169277   -395.982244                    
V 19  21705.800656 -14855.571252   9800.380052     -0.028169                    
P 20 -14849.774825 -17698.498152  12995.189813    115.210500                    
V 20  -1426.271288 -17049.712761 -24450.446438      0.024347                    
P 21  25477.027795   2491.689608  -7415.973100   -313.190504                    
V 21   8612.754143   6157.992062  28853.228361     -0.019210                    
P 22  12712.987329 -11997.177805 -19757.710207    179.725634                    
V 22   6739.106254  24857.767145 -10795.080283      0.015872                    
P 23 -14104.094320  -7685.686134  21294.387198     58.237793                    
V 23  19888.502893 -17968.321863   6312.436906     -0.035032                    
P 24  17904.830240  15014.458117 -12678.035525    -11.716850                    
V 24 -16016.706066  -2659.175801 -25744.397711     -0.007409                    
P 25  15421.038745  10485.515171  18892.046912    134.469678                    
V 25   3927.337361  23751.599232 -16241.766031      0.047255                    
P 26  -7485.773411  19574.623240 -16759.225323    138.922613                    
V 26 -17116.256012  10781.502888  21363.889927      0.173656                    
P 27   8343.040542 -20863.946669 -14162.321413    -22.912581                    
V 27  14783.365944 -10444.559899  24120.642328     -0.048811                    
P 28 -13093.945518   7684.767886 -21185.812488    283.526874                    
V 28  -4815.730765 -27850.994556  -7104.522917      0.030852                    
P 29  18955.477694   1141.326206  18593.058726    461.538617                    
V 29 -17384.745029  15906.710582  16826.407463      0.032191                    
P 31  14161.197716  -9589.769725  20565.446761    323.243766                    
V 31  23901.249879   9199.126047 -11996.344421      0.010324                    
P 32  -7785.708123 -24860.187598   6576.319896   -555.149462                    
V 32   1600.873921  -8344.352310 -29674.198546      0.017139                    
EOF
